{
  "type": "FeatureCollection",
  "features": [
    {
      "type": "Feature",
      "geometry": {
        "type": "Polygon",
        "coordinates": [
          [
            [0, 90],
            [180, 90],
            [180, -90],
            [0, -90],
            [-180, -90],
            [-180, 0],
            [-180, 90],
            [0, 90]
          ],
          [
            [-91.120132439872, 40.7054431031224],
            [-91.1293030499532, 40.6821889950769],
            [-91.1626443887533, 40.6563523520576],
            [-91.2150599748723, 40.6438594453197],
            [-91.2622111308972, 40.6395869589714],
            [-91.375762736115, 40.6034802687423],
            [-91.4112710896884, 40.5730126036178],
            [-91.4130259515244, 40.548034560748],
            [-91.3822556472013, 40.5285383177231],
            [-91.3749464598658, 40.5036976073618],
            [-91.38555116117, 40.4472940426783],
            [-91.3729083335424, 40.4030325677777],
            [-91.3859091788866, 40.3924048654796],
            [-91.4189686001036, 40.3869192839399],
            [-91.448747167896, 40.3719466214424],
            [-91.4770381826954, 40.3910121656835],
            [-91.4903138484694, 40.3908060892146],
            [-91.5003775083857, 40.4051606259135],
            [-91.5276917580219, 40.410168885034],
            [-91.5296069533599, 40.4350861617654],
            [-91.5388465146171, 40.4412886594069],
            [-91.5332082665733, 40.455441108548],
            [-91.5793830718663, 40.4637602156327],
            [-91.5860286494577, 40.484519441139],
            [-91.6168601861549, 40.5048738180772],
            [-91.6225365101678, 40.5329033260858],
            [-91.6920808947103, 40.5516776280172],
            [-91.6899597783154, 40.5812025114281],
            [-91.7169764137452, 40.593435465496],
            [-91.7417117546903, 40.6097843541051],
            [-91.946370191588, 40.6082665993578],
            [-92.1931744264162, 40.6000887100846],
            [-92.3615131030707, 40.5995762645265],
            [-92.6464324189334, 40.5914618870057],
            [-92.7178154324432, 40.5896671878636],
            [-93.1009385779767, 40.5843472756419],
            [-93.370271353474, 40.5804911383585],
            [-93.562910476162, 40.5808138775242],
            [-93.7863036885096, 40.5784485050837],
            [-94.0180588498821, 40.5740221089342],
            [-94.2383917904041, 40.5709661368439],
            [-94.4852310965669, 40.5742048735853],
            [-94.6398763078692, 40.5757448522656],
            [-94.9206158666141, 40.5772183145592],
            [-95.2174284056532, 40.5818925930373],
            [-95.382555076451, 40.5843340138078],
            [-95.7674796038473, 40.5890479741802],
            [-95.7575462828941, 40.6209044019939],
            [-95.7679992501671, 40.6431173006508],
            [-95.8766161061959, 40.7304362727717],
            [-95.8517904190058, 40.792600032208],
            [-95.8464356426656, 40.8483322165404],
            [-95.8343965393141, 40.8703008073473],
            [-95.8365411229382, 40.9011080479504],
            [-95.837603209355, 40.9742580454416],
            [-95.8608970510985, 41.0026505443545],
            [-95.8595394744412, 41.0350028404337],
            [-95.8788047232536, 41.0658712616073],
            [-95.8582741089738, 41.1091870019641],
            [-95.876685264589, 41.164202425607],
            [-95.8598009812321, 41.1668650496258],
            [-95.859198448449, 41.180536860889],
            [-95.916100264384, 41.194063828058],
            [-95.9222499737091, 41.2078539597474],
            [-95.9109813000316, 41.2252450938258],
            [-95.9302305932006, 41.3020567562363],
            [-95.911202296064, 41.3084690602375],
            [-95.8975913545469, 41.2868630459026],
            [-95.8891070961842, 41.3013890539721],
            [-95.9428951785248, 41.3400771394862],
            [-95.9400563171641, 41.3948054133384],
            [-95.9350657750251, 41.4623813997946],
            [-95.9531857401339, 41.4723871945992],
            [-96.0068973597127, 41.481954520014],
            [-96.0134509851336, 41.4929940644255],
            [-95.9966886484852, 41.5115177384141],
            [-95.9939648957, 41.5281036305036],
            [-96.00459275341, 41.5366636781757],
            [-96.0501720194661, 41.524335145655],
            [-96.0858402921092, 41.5375224337374],
            [-96.0919362288419, 41.5631451778779],
            [-96.0808351412319, 41.5760002984595],
            [-96.1113076241316, 41.5990063169601],
            [-96.0993060787079, 41.6546803771603],
            [-96.1202644389418, 41.6840948661632],
            [-96.1222023244492, 41.6949130519142],
            [-96.085557338446, 41.7049872798549],
            [-96.0997711753736, 41.7315636845574],
            [-96.0993209982713, 41.7529750711161],
            [-96.0764171373361, 41.7914690986985],
            [-96.1356235595739, 41.8626208071726],
            [-96.1599702148109, 41.9041513803305],
            [-96.145870761202, 41.9249070831621],
            [-96.1473284232632, 41.9662544772366],
            [-96.1852176904899, 41.9806854766977],
            [-96.2028425125899, 41.9966156332561],
            [-96.2360928834964, 42.001258104054],
            [-96.2387254611727, 42.028438181228],
            [-96.2654831282091, 42.0488969433056],
            [-96.2851229720317, 42.1234526952109],
            [-96.3521657395095, 42.1681854314583],
            [-96.3635118602266, 42.2140424707736],
            [-96.3377084235963, 42.2295222948172],
            [-96.3326578405762, 42.2603071560752],
            [-96.3428815749743, 42.2820816889504],
            [-96.3687003456004, 42.2980237086338],
            [-96.389780859759, 42.3287896614174],
            [-96.4241751674648, 42.3492788842702],
            [-96.411761469103, 42.3809179941385],
            [-96.4176283283731, 42.414777476941],
            [-96.3978902640921, 42.4417930762898],
            [-96.3960742216852, 42.4674012634952],
            [-96.4393947280137, 42.4892408622439],
            [-96.4802432491891, 42.51713029213],
            [-96.4893375001157, 42.5640279709894],
            [-96.5009420193809, 42.5738851918089],
            [-96.4884981710689, 42.5804806748935],
            [-96.5128439974412, 42.6297550712781],
            [-96.5411651103876, 42.6624053441922],
            [-96.563039262431, 42.6685130404414],
            [-96.6265407575773, 42.7083546983057],
            [-96.6407092141662, 42.74860379494],
            [-96.632980569523, 42.7768355977227],
            [-96.6008750678877, 42.7995586107558],
            [-96.5876454559051, 42.8353814148489],
            [-96.5731261305571, 42.8343474062218],
            [-96.5562111792087, 42.8466606565509],
            [-96.537511112466, 42.8969064304789],
            [-96.5442634581823, 42.9138663477331],
            [-96.5149350674932, 42.952382081208],
            [-96.5171478252335, 42.9864581048954],
            [-96.4990199859097, 43.0120501292405],
            [-96.5200103610403, 43.0515086444291],
            [-96.4795732675465, 43.0618840610551],
            [-96.4620939629931, 43.0755821887704],
            [-96.4608048194713, 43.0878728525383],
            [-96.4515051137251, 43.1263087559885],
            [-96.4731145471258, 43.2090821308652],
            [-96.4872451867666, 43.2179092801645],
            [-96.5586057691282, 43.2254892472146],
            [-96.5669910817751, 43.2396337703377],
            [-96.5595677701402, 43.2532633095047],
            [-96.5707224749314, 43.2636123060706],
            [-96.579130840376, 43.2900740166298],
            [-96.5405632510572, 43.3076591568359],
            [-96.5228938774831, 43.3569663451775],
            [-96.5250535360836, 43.3842252680995],
            [-96.5577087303807, 43.4007272376451],
            [-96.5891129607341, 43.4355391377126],
            [-96.5837958977348, 43.4819205375151],
            [-96.5983154302998, 43.4998490866986],
            [-96.4604547277729, 43.4997184887152],
            [-96.0610395226623, 43.4985336785293],
            [-95.8669120181166, 43.4989439665216],
            [-95.4647753395988, 43.4995410080761],
            [-95.3965585889787, 43.5003340243118],
            [-94.9204647024273, 43.4993712462389],
            [-94.859839263942, 43.5000304008367],
            [-94.4552382672671, 43.4981020990768],
            [-94.2467874120544, 43.4989484734731],
            [-93.9739497824653, 43.500298849369],
            [-93.6536994900605, 43.5007627027381],
            [-93.5008302248372, 43.5004885039574],
            [-93.0543803191833, 43.5014574467109],
            [-93.0272108100331, 43.501278878187],
            [-92.558008414847, 43.500259478299],
            [-92.4531691093738, 43.4994619033079],
            [-92.077532528208, 43.4991535138611],
            [-91.7303661520137, 43.4995717796755],
            [-91.6110989553216, 43.5006261990941],
            [-91.2235667679924, 43.5008086529211],
            [-91.2359034855511, 43.4646842457105],
            [-91.2109165841911, 43.4240510739277],
            [-91.1982436066114, 43.3705129978815],
            [-91.177048709134, 43.3539461696785],
            [-91.0784980514188, 43.3132978193121],
            [-91.0664279174474, 43.280682876753],
            [-91.0690523100845, 43.2578982169129],
            [-91.1613540537385, 43.1475759201014],
            [-91.1685715479247, 43.0828879052357],
            [-91.1597518066035, 43.0811827752777],
            [-91.1522138008246, 43.0013164358778],
            [-91.1391217285674, 42.9258936915686],
            [-91.0934287008411, 42.8714402899496],
            [-91.0820303098481, 42.7833648752449],
            [-91.0661686900337, 42.7449138450152],
            [-90.9991821299384, 42.7070587684552],
            [-90.9194089342013, 42.6806774059612],
            [-90.8925456905322, 42.6782400777098],
            [-90.745610059986, 42.6570014058185],
            [-90.694791126166, 42.6379287644241],
            [-90.664380652701, 42.5713918115869],
            [-90.6392190163151, 42.5557140961127],
            [-90.6257074349462, 42.5285623039442],
            [-90.6384560982269, 42.5093636751258],
            [-90.6518990910482, 42.494700593568],
            [-90.6484737561559, 42.4756470160601],
            [-90.6059553835747, 42.460564580803],
            [-90.5637116760102, 42.4218437033319],
            [-90.4911711530429, 42.388791482876],
            [-90.441725078071, 42.360083652775],
            [-90.4278091143699, 42.3406449640379],
            [-90.4181124342692, 42.2639391372799],
            [-90.4073017601031, 42.2426617677711],
            [-90.3678582680864, 42.2102266888369],
            [-90.3237299813714, 42.1973374293934],
            [-90.2310631228474, 42.1597414766387],
            [-90.1917024136852, 42.1227099288935],
            [-90.1762144564073, 42.1205242128617],
            [-90.1667767446992, 42.1037669012057],
            [-90.1682262735261, 42.0610667482495],
            [-90.1506630464293, 42.0334532266776],
            [-90.1427967584535, 41.9839895383328],
            [-90.1546448603125, 41.9308021238296],
            [-90.1959656789141, 41.8061669925709],
            [-90.2554387365424, 41.7817690513347],
            [-90.3050158757331, 41.7564970723451],
            [-90.3261570006182, 41.7227679285059],
            [-90.3412623850654, 41.6491222699653],
            [-90.3394762853933, 41.6028314754279],
            [-90.3484942807744, 41.5868824103952],
            [-90.4231352503242, 41.5673054048728],
            [-90.4350983571505, 41.5436125684173],
            [-90.4551261614245, 41.5275795290367],
            [-90.5409754529466, 41.5260034429409],
            [-90.6008378179306, 41.5096188095446],
            [-90.6589297280635, 41.4623506799992],
            [-90.7083546151825, 41.4500936370529],
            [-90.7800427026812, 41.4498525410533],
            [-90.8442838040987, 41.444652555183],
            [-90.9498006546044, 41.4212638602431],
            [-91.0008427602268, 41.4311127406122],
            [-91.0276377779756, 41.4235364516491],
            [-91.0559355273001, 41.4014073201239],
            [-91.0734289743562, 41.3349253831766],
            [-91.102496479903, 41.2678481660121],
            [-91.1016720186155, 41.2315519766067],
            [-91.0564663632919, 41.1762902765605],
            [-91.0184022574332, 41.165857720079],
            [-90.9904854750139, 41.1444046312685],
            [-90.9579298998844, 41.104393263371],
            [-90.9547938905529, 41.0703973287287],
            [-90.9608509224518, 40.9505415863441],
            [-90.9834189896033, 40.9239649744255],
            [-91.0493536686779, 40.8796233586758],
            [-91.0890502752318, 40.8337675108534],
            [-91.0928951710389, 40.7615871295683],
            [-91.120132439872, 40.7054431031224]
          ]
        ]
      },
      "properties": {}
    }
  ]
}
